[{"name":"极速达（配送时效以自动定位为准）","ordering":100,"areas":[{"name":"北京","description":"","id":1,"ordering":100,"area_code":"110106","is_chrome_city":1},{"name":"上海","description":"","id":9,"ordering":99,"area_code":"310118","is_chrome_city":1},{"name":"广州","description":"","id":35,"ordering":97,"area_code":"440118","is_chrome_city":1},{"name":"深圳","description":"","id":34,"ordering":96,"area_code":"440305","is_chrome_city":1},{"name":"杭州","description":"","id":38,"ordering":95,"area_code":"330110","is_chrome_city":1},{"name":"天津","description":"","id":2,"ordering":94,"area_code":"120117","is_chrome_city":1},{"name":"南京","description":"","id":41,"ordering":93,"area_code":"320113","is_chrome_city":1},{"name":"苏州","description":"","id":39,"ordering":92,"area_code":"320581","is_chrome_city":1},{"name":"无锡","description":"","id":40,"ordering":91,"area_code":"320211","is_chrome_city":0},{"name":"合肥","description":"","id":70,"ordering":90,"area_code":"340102","is_chrome_city":1},{"name":"济南","description":"","id":67,"ordering":89,"area_code":"370112","is_chrome_city":1},{"name":"石家庄","description":"","id":44,"ordering":88,"area_code":"130105","is_chrome_city":1},{"name":"青岛","description":"","id":68,"ordering":2,"area_code":"370282","is_chrome_city":1},{"name":"太原","description":"","id":83,"ordering":0,"area_code":"140108","is_chrome_city":1},{"name":"宁波","description":"","id":89,"ordering":0,"area_code":"330205","is_chrome_city":1},{"name":"南通","description":"","id":85,"ordering":0,"area_code":"320602","is_chrome_city":1}]},{"name":"华北","ordering":10,"areas":[{"name":"重庆","description":"","id":22,"ordering":86,"area_code":"500232","is_chrome_city":0},{"name":"陕西","description":"","id":27,"ordering":1,"area_code":"610403","is_chrome_city":0},{"name":"山东","description":"","id":15,"ordering":1,"area_code":"371581","is_chrome_city":0},{"name":"山西","description":"","id":4,"ordering":1,"area_code":"140781","is_chrome_city":0},{"name":"内蒙古","description":"","id":5,"ordering":1,"area_code":"152224","is_chrome_city":0},{"name":"辽宁","description":"","id":6,"ordering":1,"area_code":"211103","is_chrome_city":0},{"name":"吉林","description":"吉林区","id":7,"ordering":1,"area_code":"222401","is_chrome_city":0},{"name":"甘肃","description":"","id":28,"ordering":0,"area_code":"620602","is_chrome_city":0},{"name":"宁夏","description":"","id":30,"ordering":0,"area_code":"640422","is_chrome_city":0},{"name":"河南","description":"","id":16,"ordering":0,"area_code":"410622","is_chrome_city":0},{"name":"河北","description":"部分区域暂不支持","id":3,"ordering":0,"area_code":"130185","is_chrome_city":0},{"name":"黑龙江","description":"","id":8,"ordering":0,"area_code":"230182","is_chrome_city":0},{"name":"晋中","description":"极速达","id":84,"ordering":0,"area_code":"140702","is_chrome_city":1}]},{"name":"华南","ordering":9,"areas":[{"name":"东莞","description":"","id":57,"ordering":90,"area_code":"441900","is_chrome_city":0},{"name":"佛山","description":"","id":88,"ordering":0,"area_code":"440608","is_chrome_city":0},{"name":"四川","description":"","id":23,"ordering":0,"area_code":"511502","is_chrome_city":0},{"name":"贵州","description":"","id":24,"ordering":0,"area_code":"520303","is_chrome_city":0},{"name":"云南","description":"","id":25,"ordering":0,"area_code":"530521","is_chrome_city":0},{"name":"福建","description":"","id":13,"ordering":0,"area_code":"350213","is_chrome_city":0},{"name":"江西","description":"","id":14,"ordering":0,"area_code":"360313","is_chrome_city":0},{"name":"湖北","description":"","id":17,"ordering":0,"area_code":"420222","is_chrome_city":0},{"name":"湖南","description":"","id":18,"ordering":0,"area_code":"430682","is_chrome_city":0},{"name":"广东","description":"","id":19,"ordering":0,"area_code":"441403","is_chrome_city":0},{"name":"广西","description":"","id":20,"ordering":0,"area_code":"450681","is_chrome_city":0},{"name":"海南","description":"","id":21,"ordering":0,"area_code":"460105","is_chrome_city":0}]},{"name":"华东","ordering":8,"areas":[{"name":"常州","description":"","id":42,"ordering":87,"area_code":"320411","is_chrome_city":1},{"name":"安徽","description":"","id":73,"ordering":0,"area_code":"341602","is_chrome_city":0},{"name":"江苏","description":"","id":76,"ordering":0,"area_code":"320321","is_chrome_city":0},{"name":"浙江","description":"","id":11,"ordering":0,"area_code":"330624","is_chrome_city":0}]}]